ONEWEB-0674             
1 55833U 23029AP  24178.26904199 -.00000096  00000+0 -29213-3 0  9998
2 55833  87.8963  73.1592 0002334  84.7838 275.3558 13.14505407 64706
ONEWEB-0675             
1 55834U 23029AQ  24178.26536399  .00000997  00000+0  24585-2 0  9996
2 55834  87.9159  88.4385 0001828  63.7209 296.4112 13.19720398 63836
ONEWEB-0720             
1 55835U 23029AR  24178.25746093 -.00000530  00000+0 -13568-2 0  9994
2 55835  87.9157  88.4412 0002094  81.6366 278.5004 13.19729980 63753
ONEWEB-0537             
1 56046U 23043A   24178.43943279  .00000051  00000+0  99194-4 0  9997
2 56046  87.9095  12.2505 0001489  85.8360 274.2941 13.16595107 64128
ONEWEB-0538             
1 56047U 23043B   24178.43310182 -.00000002  00000+0 -39428-4 0  9991
2 56047  87.9095  12.2713 0001805  76.8759 283.2573 13.16594780 64132
ONEWEB-0546             
1 56048U 23043C   24178.49643200 -.00000041  00000+0 -14031-3 0  9993
2 56048  87.9097  12.2227 0001040 105.0839 255.0407 13.16594481 64131
ONEWEB-0547             
1 56049U 23043D   24178.08976532  .00000048  00000+0  85181-4 0  9996
2 56049  87.9283  27.5281 0001831  77.9167 282.2172 13.21826167 62962
ONEWEB-0548             
1 56050U 23043E   24178.44576425  .00000031  00000+0  48163-4 0  9996
2 56050  87.9097  12.2761 0002253  98.5561 261.5826 13.16595764 64123
